QIANFAN-33              
1 61566U 24185Q   25347.90746681  .00000452  00000+0  31718-3 0  9999
2 61566  88.9803  78.6787 0005604 337.0610  23.0316 13.96551462 69327
QIANFAN-34              
1 61567U 24185R   25347.93944962  .00000521  00000+0  33083-3 0  9999
2 61567  88.9778  78.2375 0004232 342.9194  17.1843 14.02307238 69525
QIANFAN-35              
1 61568U 24185S   25347.95877215  .00001121  00000+0  44676-3 0  9995
2 61568  88.9805  76.7375 0004364 283.7595  76.3113 14.27970736 70359
QIANFAN-36              
1 61569U 24185T   25347.92264897  .00000160  00000+0  21320-3 0  9992
2 61569  88.9788  80.9224 0007032  53.7186 306.4616 13.55588203 68082
QIANFAN-37              
1 62238U 24232B   25347.95533713  .00000112  00000+0  15426-3 0  9995
2 62238  89.0021  41.2073 0002679 101.0257 259.1195 13.50978349 99335
QIANFAN-38              
1 62239U 24232C   25347.90594622  .00000100  00000+0  13652-3 0  9993
2 62239  89.0028  41.1280 0014739 184.2265 175.8764 13.50981481 99386
QIANFAN-39              
1 62240U 24232D   25347.89783062  .00000526  00000+0  21676-3 0  9998
2 62240  89.0018  37.1774 0018332  77.9934 282.3313 14.25392132101553
QIANFAN-40              
1 62241U 24232E   25347.93885918  .00000114  00000+0  15847-3 0  9993
2 62241  89.0055  40.7096 0013493 191.4815 168.6031 13.50981193 99754
